CZ-4B R/B               
1 29507U 06046C   26196.73162734  .00002512  00000+0  12542-3 0  9992
2 29507  97.5436 241.2512 0032651 180.2561 179.8661 15.17984393 79460
CZ-2C R/B               
1 31114U 07010B   26196.80287282  .00000030  00000+0  32929-4 0  9990
2 31114  98.4120 303.7573 0057769 281.9611  77.5094 14.20281882997908
COSMO-SKYMED 1          
1 31598U 07023A   26196.80686279  .00001445  00000+0  13007-3 0  9995
2 31598  97.8846  28.9049 0001477 103.0429 257.0957 14.97221320 34070
COSMOS 2428             
1 31792U 07029A   26196.53283664  .00000244  00000+0  15641-3 0  9990
2 31792  70.9381 294.9624 0007203  80.5752 279.6183 14.12934606982154
SL-16 R/B               
1 31793U 07029B   26196.53831066  .00000197  00000+0  12663-3 0  9994
2 31793  70.9745 263.6316 0001953 256.3609 203.2418 14.14851875983456
KORONAS-FOTON           
1 33504U 09003A   26196.81611252  .00007931  00000+0  15970-3 0  9991
2 33504  82.4311 142.3829 0012128  60.5371 299.7086 15.46308070965523
CZ-2C R/B               
1 37731U 11030B   26196.81394622  .00000484  00000+0  67390-4 0  9999
2 37731  97.8670 151.6874 0050803 294.0878 131.7432 14.81533094809068
H-2A R/B                
1 38341U 12025E   26196.85488928  .00000522  00000+0  52208-4 0  9994
2 38341  98.4847 174.3696 0042531 252.8628 106.7932 14.95838393767376
SHIJIAN-16 (SJ-16)      
1 39358U 13057A   26196.85946376  .00001215  00000+0  12045-3 0  9999
2 39358  74.9741 302.3758 0015763 163.1296 197.0420 14.92673722690629
SL-4 R/B                
1 39679U 14021B   26196.83406257  .00005352  00000+0  11441-3 0  9999
2 39679  51.6065  70.3720 0089592 210.8307 148.7399 15.42490820676030
ALOS-2                  
1 39766U 14029A   26196.88313580 -.00000054  00000+0 -40973-6 0  9996
2 39766  97.9234 293.6364 0001570  90.9720 269.1671 14.79466287655822
YAOGAN-29               
1 41038U 15069A   26196.85152486  .00000500  00000+0  68053-4 0  9990
2 41038  98.0018 225.5279 0000693  14.4262 345.6970 14.83108115574870
ASTRO-H (HITOMI)        
1 41337U 16012A   26196.44764294  .00001273  00000+0  69424-4 0  9993
2 41337  30.9981 251.6570 0009649 177.8511 182.2170 15.10633098571565
HXMT (HUIYAN)           
1 42758U 17034A   26196.87762951  .00002305  00000+0  11931-3 0  9997
2 42758  43.0155  23.2586 0032216 325.0313  34.8420 15.18692409502028
SAOCOM 1A               
1 43641U 18076A   26196.82803023  .00000833  00000+0  11125-3 0  9996
2 43641  97.8880  23.1603 0001480  86.0476 274.0907 14.82150440420340
H-2A R/B                
1 43682U 18084L   26196.61206576  .00013223  00000+0  26930-3 0  9994
2 43682  98.8530  81.7337 0020536 299.0779  60.8408 15.46212820425510
SAOCOM 1B               
1 46265U 20059A   26196.85922990  .00000085  00000+0  17284-4 0  9995
2 46265  97.8883  22.2873 0001507  81.5101 278.6283 14.82157817317732
CSS (TIANHE)            
1 48274U 21035A   26196.53543323  .00001219  00000+0  20014-4 0  9991
2 48274  41.4690 149.7716 0002229 300.3824  59.6794 15.58093729297592
COSMOS 2550             
1 48865U 21056A   26196.84612054  .00002704  00000+0  87966-4 0  9991
2 48865  67.1435  13.2140 0008511 270.2202  89.7977 15.33831470283117
CZ-2C R/B               
1 52794U 22058K   26196.50200512  .00027038  00000+0  28016-3 0  9992
2 52794  50.1855  15.9607 0030134  23.9117 336.3250 15.63873458230079
CZ-2C R/B               
1 54039U 22132E   26196.77390046  .00050123  00000+0  33619-3 0  9996
2 54039  97.2890 205.1497 0009342 339.3600  20.7286 15.75044788210443
GSLV R/B                
1 54149U 22138AN  26196.78827370  .00001376  00000+0  11534-3 0  9998
2 54149  87.3817 123.3803 0023484  50.2650 310.0646 14.97384391203091
XRISM                   
1 57800U 23137A   26196.36830794  .00001997  00000+0  10585-3 0  9997
2 57800  31.0008 177.0225 0007841 248.1772 111.8032 15.12669567157130
ACS3                    
1 59588U 24077B   26196.32599719  .00004361  00000+0  30372-2 0  9994
2 59588  97.1739 108.8789 0125757  36.5333 324.4331 13.95282262111962
SPACEMOBILE-003         
1 61045U 24163A   26196.67340205  .00001079  00000+0  63118-4 0  9992
2 61045  52.9668 178.4446 0004736 195.1697 164.9156 15.20706712102103
SPACEMOBILE-005         
1 61046U 24163B   26196.39395759  .00002259  00000+0  11604-3 0  9999
2 61046  52.9762 179.6783 0008703 196.2999 163.7716 15.20721288102059
SPACEMOBILE-001         
1 61047U 24163C   26196.39230189  .00000276  00000+0  27082-4 0  9990
2 61047  52.9733 179.3964 0007205 194.1158 165.9636 15.20741724102058
SPACEMOBILE-002         
1 61048U 24163D   26196.37616552  .00003670  00000+0  17898-3 0  9995
2 61048  52.9778 179.5102 0006025 192.7695 167.3147 15.20785739102050
SPACEMOBILE-004         
1 61049U 24163E   26196.62160950  .00012160  00000+0  55841-3 0  9994
2 61049  52.9675 178.1586 0006579 225.4338 134.6120 15.20780797102091
CZ-8A R/B               
1 66004U 25231K   26196.56087171 -.00000043  00000+0  43431-4 0  9994
2 66004  50.0042 278.6032 0116565 323.8982  35.4104 14.30162280 39002
