OBJECT_NAME,OBJECT_ID,EPOCH,MEAN_MOTION,ECCENTRICITY,INCLINATION,RA_OF_ASC_NODE,ARG_OF_PERICENTER,MEAN_ANOMALY,EPHEMERIS_TYPE,CLASSIFICATION_TYPE,NORAD_CAT_ID,ELEMENT_SET_NO,REV_AT_EPOCH,BSTAR,MEAN_MOTION_DOT,MEAN_MOTION_DDOT
CZ-4B R/B,2006-046C,2026-07-15T17:33:32.602176,15.17984393,.0032651,97.5436,241.2512,180.2561,179.8661,0,U,29507,999,7946,.12542E-3,.2512E-4,0
CZ-2C R/B,2007-010B,2026-07-15T19:16:08.211648,14.20281882,.0057769,98.4120,303.7573,281.9611,77.5094,0,U,31114,999,99790,.32929E-4,.3E-6,0
COSMO-SKYMED 1,2007-023A,2026-07-15T19:21:52.945056,14.97221320,.0001477,97.8846,28.9049,103.0429,257.0957,0,U,31598,999,3407,.13007E-3,.1445E-4,0
COSMOS 2428,2007-029A,2026-07-15T12:47:17.085696,14.12934606,.00072036,70.9381,294.9624,80.5752,279.6183,0,U,31792,999,98215,.15641268E-3,.244E-5,0
SL-16 R/B,2007-029B,2026-07-15T12:55:10.041024,14.14851875,.00019536,70.9745,263.6316,256.3609,203.2418,0,U,31793,999,98345,.12662975E-3,.197E-5,0
KORONAS-FOTON,2009-003A,2026-07-15T19:35:12.121728,15.46308070,.0012128,82.4311,142.3829,60.5371,299.7086,0,U,33504,999,96552,.1597E-3,.7931E-4,0
CZ-2C R/B,2011-030B,2026-07-15T19:32:04.953408,14.81533094,.0050803,97.8670,151.6874,294.0878,131.7432,0,U,37731,999,80906,.6739E-4,.484E-5,0
H-2A R/B,2012-025E,2026-07-15T20:31:02.433792,14.95838393,.0042531,98.4847,174.3696,252.8628,106.7932,0,U,38341,999,76737,.52208E-4,.522E-5,0
SHIJIAN-16 (SJ-16),2013-057A,2026-07-15T20:37:37.668864,14.92673722,.0015763,74.9741,302.3758,163.1296,197.0420,0,U,39358,999,69062,.12045E-3,.1215E-4,0
SL-4 R/B,2014-021B,2026-07-15T20:01:03.006048,15.42490820,.0089592,51.6065,70.3720,210.8307,148.7399,0,U,39679,999,67603,.11441E-3,.5352E-4,0
ALOS-2,2014-029A,2026-07-15T21:11:42.933120,14.79466287,.000157,97.9234,293.6364,90.9720,269.1671,0,U,39766,999,65582,-.40973E-6,-.54E-6,0
YAOGAN-29,2015-069A,2026-07-15T20:26:11.747904,14.83108115,.0000693,98.0018,225.5279,14.4262,345.6970,0,U,41038,999,57487,.68053E-4,.5E-5,0
ASTRO-H (HITOMI),2016-012A,2026-07-15T10:44:36.350016,15.10633098,.0009649,30.9981,251.6570,177.8511,182.2170,0,U,41337,999,57156,.69423733E-4,.1273E-4,0
HXMT (HUIYAN),2017-034A,2026-07-15T21:03:47.189664,15.18692409,.0032216,43.0155,23.2586,325.0313,34.8420,0,U,42758,999,50202,.11931E-3,.2305E-4,0
SAOCOM 1A,2018-076A,2026-07-15T19:52:21.811872,14.82150440,.000148,97.8880,23.1603,86.0476,274.0907,0,U,43641,999,42034,.11125E-3,.833E-5,0
H-2A R/B,2018-084L,2026-07-15T14:41:22.481664,15.46212820,.0020536,98.8530,81.7337,299.0779,60.8408,0,U,43682,999,42551,.2693E-3,.13223E-3,0
SAOCOM 1B,2020-059A,2026-07-15T20:37:17.463360,14.82157817,.0001507,97.8883,22.2873,81.5101,278.6283,0,U,46265,999,31773,.17284E-4,.85E-6,0
CSS (TIANHE),2021-035A,2026-07-15T12:51:01.431072,15.58093729,.0002229,41.4690,149.7716,300.3824,59.6794,0,U,48274,999,29759,.20014E-4,.1219E-4,0
COSMOS 2550,2021-056A,2026-07-15T20:18:24.814656,15.33831470,.0008511,67.1435,13.2140,270.2202,89.7977,0,U,48865,999,28311,.87966E-4,.2704E-4,0
CZ-2C R/B,2022-058K,2026-07-15T12:02:53.242368,15.63873458,.00301342,50.1855,15.9607,23.9117,336.3250,0,U,52794,999,23007,.28016353E-3,.27038E-3,0
CZ-2C R/B,2022-132E,2026-07-15T18:34:24.999744,15.75044788,.0009342,97.2890,205.1497,339.3600,20.7286,0,U,54039,999,21044,.33619E-3,.50123E-3,0
GSLV R/B,2022-138AN,2026-07-15T18:55:06.847680,14.97384391,.0023484,87.3817,123.3803,50.2650,310.0646,0,U,54149,999,20309,.11534E-3,.1376E-4,0
XRISM,2023-137A,2026-07-15T08:50:21.806016,15.12669567,.00078418,31.0008,177.0225,248.1772,111.8032,0,U,57800,999,15713,.10585006E-3,.1997E-4,0
ACS3,2024-077B,2026-07-15T07:49:26.157216,13.95282262,.01257574,97.1739,108.8789,36.5333,324.4331,0,U,59588,999,11196,.30372334E-2,.4361E-4,0
SPACEMOBILE-003,2024-163A,2026-07-15T16:09:41.937120,15.20706712,.0004736,52.9668,178.4446,195.1697,164.9156,0,U,61045,999,10210,.63118E-4,.1079E-4,0
SPACEMOBILE-005,2024-163B,2026-07-15T09:27:17.935776,15.20721288,.00087039,52.9762,179.6783,196.2999,163.7716,0,U,61046,999,10205,.11604448E-3,.2259E-4,0
SPACEMOBILE-001,2024-163C,2026-07-15T09:24:54.883296,15.20741724,.00072054,52.9733,179.3964,194.1158,165.9636,0,U,61047,999,10205,.27081573E-4,.276E-5,0
SPACEMOBILE-002,2024-163D,2026-07-15T09:01:40.700928,15.20785739,.00060257,52.9778,179.5102,192.7695,167.3147,0,U,61048,999,10205,.17897689E-3,.367E-4,0
SPACEMOBILE-004,2024-163E,2026-07-15T14:55:07.060800,15.20780797,.0006579,52.9675,178.1586,225.4338,134.6120,0,U,61049,999,10209,.55841E-3,.1216E-3,0
CZ-8A R/B,2025-231K,2026-07-15T13:27:39.315744,14.30162280,.0116565,50.0042,278.6032,323.8982,35.4104,0,U,66004,999,3900,.43431E-4,-.43E-6,0
